STARLINK-30941          
1 58475U 23186C   25097.67616188  .00001690  00000+0  14015-3 0  9994
2 58475  43.0034  93.4854 0001278 268.8825  91.1871 15.02527510 75305
STARLINK-30980          
1 58476U 23186D   25097.67283526  .00000732  00000+0  69216-4 0  9991
2 58476  43.0036  93.4616 0001045 268.0741  91.9982 15.02535412 75306
STARLINK-30965          
1 58477U 23186E   25098.32343975  .00001316  00000+0  11249-3 0  9991
2 58477  43.0034  76.7343 0001242 267.3178  92.7522 15.02539153 75508
STARLINK-30990          
1 58478U 23186F   25098.46724536  .00003845  00000+0  29941-3 0  9990
2 58478  43.0020  89.1006 0001149 275.1730  84.8981 15.02555782 75489
STARLINK-30984          
1 58480U 23186H   25098.15471309 -.00001439  00000+0 -91427-4 0  9994
2 58480  43.0024  90.1901 0000878 270.8009  89.2732 15.02544380 75341
STARLINK-30956          
1 58481U 23186J   25098.17110523  .00000927  00000+0  83707-4 0  9996
2 58481  43.0027  65.8964 0000892 263.3141  96.7600 15.02535018 75629
STARLINK-30997          
1 58482U 23186K   25098.43728972 -.00000957  00000+0 -55811-4 0  9999
2 58482  43.0034  88.8447 0000604 293.6601  66.4177 15.02523291 75372
STARLINK-30994          
1 58483U 23186L   25098.06283287  .00004873  00000+0  19606-3 0  9994
2 58483  43.0049 353.9520 0001298 273.6889  86.3814 15.25900015 76405
STARLINK-30991          
1 58484U 23186M   25098.35060972  .00018355  00000+0  13630-2 0  9991
2 58484  43.0079  89.0772 0003327 283.9701  76.0771 15.02735291 75366
STARLINK-30979          
1 58485U 23186N   25097.99523732  .00002569  00000+0  20521-3 0  9997
2 58485  43.0029  91.5761 0001334 269.4505  90.6185 15.02532196 75309
STARLINK-31005          
1 58486U 23186P   25098.25784434  .00010219  00000+0  77038-3 0  9992
2 58486  43.0021  90.1117 0001787 280.8256  79.2385 15.02539851 75348
STARLINK-30987          
1 58487U 23186Q   25098.45391779  .00000532  00000+0  54472-4 0  9996
2 58487  43.0029  88.9978 0000884 272.7793  87.2949 15.02536074 75372
STARLINK-31000          
1 58488U 23186R   25098.18467629  .00001188  00000+0  10303-3 0  9997
2 58488  43.0030  90.4183 0001152 276.3716  83.6995 15.02537131 75292
STARLINK-30993          
1 58489U 23186S   25097.71600406 -.00001351  00000+0 -84991-4 0  9997
2 58489  43.0017  92.9211 0001245 263.1185  96.9516 15.02530098 75307
STARLINK-30978          
1 58490U 23186T   25098.44394660 -.00000614  00000+0 -30413-4 0  9993
2 58490  43.0027  88.9225 0001722 247.3351 112.7310 15.02508368 75594
STARLINK-30953          
1 58491U 23186U   25098.01828974  .00000628  00000+0  32339-4 0  9999
2 58491  43.0003   3.1946 0001423 287.9961  72.0735 15.27578545 76291
STARLINK-30986          
1 58492U 23186V   25098.23450809  .00000931  00000+0  83974-4 0  9990
2 58492  43.0028  89.9295 0001142 273.5343  86.5369 15.02531623 75348
STARLINK-30985          
1 58493U 23186W   25098.43061420 -.00001802  00000+0 -11839-3 0  9990
2 58493  43.0036  88.8231 0001406 270.8749  89.1932 15.02531656 75384
STARLINK-30981          
1 58494U 23186X   25097.69603969  .00000780  00000+0  72844-4 0  9994
2 58494  43.0057  92.7677 0001462 273.4232  86.6444 15.02525493 75308
STARLINK-31002          
1 58495U 23186Y   25097.95859977 -.00005066  00000+0 -36036-3 0  9992
2 58495  43.0031  91.2997 0001520 274.8931  85.1737 15.02523196 75516
STARLINK-31026          
1 58508U 23191A   25098.47441936 -.00000749  00000+0 -40422-4 0  9991
2 58508  43.0034 128.5263 0000694 261.9944  98.0819 15.02538936 75035
STARLINK-31020          
1 58509U 23191B   25098.13880844  .00003756  00000+0  29296-3 0  9994
2 58509  43.0018 131.1590 0001327 274.5009  85.5682 15.02537514 74856
STARLINK-30989          
1 58510U 23191C   25098.41990093  .00001216  00000+0  10504-3 0  9996
2 58510  43.0016 128.1213 0001196 278.7887  81.2820 15.02536554 75040
STARLINK-30968          
1 58511U 23191D   25098.08417434 -.00002364  00000+0 -16005-3 0  9992
2 58511  43.0021 129.9033 0001267 289.4243  70.6463 15.02517437 74931
STARLINK-30982          
1 58512U 23191E   25097.81494882 -.00000473  00000+0 -19958-4 0  9995
2 58512  42.9999 131.3220 0000077 315.4055  44.6781 15.02539871 74916
STARLINK-30998          
1 58513U 23191F   25097.81161154  .00000697  00000+0  66629-4 0  9992
2 58513  43.0014 131.3009 0001002 275.3180  84.7547 15.02531158 74942
STARLINK-30983          
1 58514U 23191G   25098.16719356  .00000913  00000+0  82622-4 0  9997
2 58514  43.0002 128.8087 0001065 282.9619  77.1105 15.02532957 74569
STARLINK-31017          
1 58515U 23191H   25098.35232746  .00007161  00000+0  26969-3 0  9995
2 58515  43.0019 324.9651 0001080 268.5439  91.5289 15.27553589 76758
STARLINK-31028          
1 58516U 23191J   25097.80494886 -.00000476  00000+0 -20152-4 0  9993
2 58516  43.0014 131.2457 0001182 269.8813  90.1893 15.02539730 74917
STARLINK-31011          
1 58517U 23191K   25098.34010044  .00003522  00000+0  27569-3 0  9995
2 58517  43.0027 128.3851 0001168 283.9149  76.1563 15.02531987 75027
STARLINK-31021          
1 58518U 23191L   25098.09072133  .00000803  00000+0  74490-4 0  9990
2 58518  43.0022 129.0743 0001188 274.2000  85.8706 15.02534188 74999
STARLINK-31010          
1 58519U 23191M   25098.35995279  .00003854  00000+0  30016-3 0  9999
2 58519  43.0015 127.6203 0001288 274.0436  86.0259 15.02545386 74975
STARLINK-31003          
1 58520U 23191N   25097.80161864 -.00000426  00000+0 -16439-4 0  9993
2 58520  43.0008 131.2226 0001153 276.6576  83.4135 15.02535952 74915
STARLINK-31015          
1 58521U 23191P   25098.13068431  .00003294  00000+0  25866-3 0  9994
2 58521  43.0010 129.3928 0001113 275.0699  85.0016 15.02554360 74933
STARLINK-31023          
1 58522U 23191Q   25098.39325044  .00008041  00000+0  60928-3 0  9992
2 58522  43.0021 127.9210 0001560 287.2557  72.8114 15.02558014 75033
STARLINK-30932          
1 58523U 23191R   25097.79163254  .00001246  00000+0  10728-3 0  9992
2 58523  43.0023 131.1453 0001156 275.7727  84.2983 15.02532044 74860
STARLINK-30992          
1 58524U 23191S   25098.12069175  .00000821  00000+0  75866-4 0  9991
2 58524  43.0018 129.3126 0001294 276.0671  84.0024 15.02534115 74827
STARLINK-30948          
1 58525U 23191T   25098.44974895  .00003298  00000+0  25907-3 0  9992
2 58525  43.0017 127.4834 0001274 274.4785  85.5912 15.02542146 75048
STARLINK-31013          
1 58526U 23191U   25097.78164277  .00001087  00000+0  95508-4 0  9993
2 58526  43.0013 131.0735 0001014 277.8681  82.2046 15.02532781 74911
STARLINK-31001          
1 58527U 23191V   25098.36327923  .00001463  00000+0  12331-3 0  9998
2 58527  43.0022 127.6042 0001199 274.7613  85.3093 15.02539868 74862
STARLINK-31004          
1 58528U 23191W   25097.77831154  .00001023  00000+0  90764-4 0  9998
2 58528  43.0022 131.0465 0001145 270.3766  89.6945 15.02532740 74914
STARLINK-30988          
1 58529U 23191X   25097.77498059  .00001715  00000+0  14197-3 0  9995
2 58529  43.0027 131.0202 0001321 274.2598  85.8094 15.02534092 74916
STARLINK-31009          
1 58530U 23191Y   25098.43643555  .00000475  00000+0  50268-4 0  9996
2 58530  43.0016 127.3816 0000968 259.3841 100.6892 15.02527566 75041
STARLINK-31012          
1 58531U 23192A   25098.47257990  .00002903  00000+0  11011-3 0  9996
2 58531  53.1598 179.6853 0001226 101.6668 258.4470 15.30197857 75854
STARLINK-31035          
1 58532U 23192B   25098.46934312  .00002872  00000+0  81756-4 0  9995
2 58532  53.1603 170.4127 0001707 109.6144 250.5045 15.39621385 75988
STARLINK-31036          
1 58533U 23192C   25098.43893040  .00003440  00000+0  12825-3 0  9997
2 58533  53.1602 180.2131 0001407  93.6654 266.4507 15.30188063 75854
STARLINK-30936          
1 58534U 23192D   25098.58335648  .00159862  00000+0  39397-2 0  9991
2 58534  53.1589 175.3668 0001304  84.6346 310.5040 15.39492825 75927
STARLINK-31032          
1 58535U 23192E   25098.47574676  .00002992  00000+0  11316-3 0  9999
2 58535  53.1594 179.7040 0001236 102.7602 257.3536 15.30185494 75860
STARLINK-31037          
1 58536U 23192F   25098.47996720  .00000855  00000+0  40999-4 0  9994
2 58536  53.1596 179.7497 0001185  91.0227 269.0910 15.30194538 75860
STARLINK-31041          
1 58537U 23192G   25098.47890450  .00003518  00000+0  13086-3 0  9993
2 58537  53.1607 179.7182 0001706 132.9577 227.1567 15.30202053 75862
STARLINK-31014          
1 58538U 23192H   25097.50974778  .00000578  00000+0  31666-4 0  9991
2 58538  53.1604 184.3378 0001414  85.0325 275.0837 15.30184642 74510
STARLINK-31055          
1 58539U 23192J   25097.51291453  .00007417  00000+0  26232-3 0  9996
2 58539  53.1583 184.3578 0001263  85.8932 274.2213 15.30194742 74514
STARLINK-31019          
1 58540U 23192K   25097.50341514  .00008910  00000+0  31274-3 0  9992
2 58540  53.1593 184.2966 0001300 105.5227 254.5917 15.30183083 75706
STARLINK-31045          
1 58541U 23192L   25097.71051617 -.00000106  00000+0  11954-4 0  9992
2 58541  53.1603 245.4868 0001248  88.4239 271.6894 15.04920146 73660
STARLINK-31030          
1 58542U 23192M   25098.23453843  .00003393  00000+0  12666-3 0  9998
2 58542  53.1606 181.0378 0001280  95.2423 264.8724 15.30190190 75814
STARLINK-31049          
1 58543U 23192N   25097.51924599  .00005946  00000+0  21276-3 0  9993
2 58543  53.1585 184.3966 0001323  85.1929 274.9222 15.30193409 74514
STARLINK-31048          
1 58544U 23192P   25098.45990799 -.00001872  00000+0 -51084-4 0  9990
2 58544  53.1599 179.5639 0001986 110.1079 250.0135 15.30194873 75866
STARLINK-31057          
1 58545U 23192Q   25098.24087439  .00004759  00000+0  17274-3 0  9993
2 58545  53.1588 181.0799 0001346  96.3994 263.7160 15.30194060 75824
STARLINK-31050          
1 58546U 23192R   25098.24403697  .00006531  00000+0  23243-3 0  9995
2 58546  53.1581 181.1023 0001345 108.1713 251.9434 15.30200160 75753
